{"type": "FeatureCollection", "features": [ {"type": "Feature", "properties": {"norad_id": 34141, "name": "COSMOS 2251 DEB", "group": "cosmos-2251-debris", "lat": -18.37662349064661, "lon": 20.276692298263836, "alt_km": 754.3922818503434, "timestamp": "2025-12-14T09:36:23.431903+00:00", "meta": {"OBJECT_NAME": "COSMOS 2251 DEB", "OBJECT_ID": "1993-036LN", "EPOCH": "2025-12-13T12:42:17.506656", "MEAN_MOTION": 14.49254777, "ECCENTRICITY": 0.00470871, "INCLINATION": 74.0116, "RA_OF_ASC_NODE": 27.3775, "ARG_OF_PERICENTER": 113.3783, "MEAN_ANOMALY": 6.0567, "EPHEMERIS_TYPE": 0, "CLASSIFICATION_TYPE": "U", "NORAD_CAT_ID": 34141, "ELEMENT_SET_NO": 999, "REV_AT_EPOCH": 87705, "BSTAR": 0.0017643558, "MEAN_MOTION_DOT": 6.801e-05, "MEAN_MOTION_DDOT": 0}, "tle": {"line1": "1 34141U 93036LN  25347.52936929  .00006801  00000+0  17644-2 0  9998", "line2": "2 34141  74.0116  27.3775 0047087 113.3783   6.0567 14.49254777877058"}}, "geometry": {"type": "Point", "coordinates": [20.276692298263836, -18.37662349064661]}}, {"type": "Feature", "properties": {"norad_id": 34270, "name": "COSMOS 2251 DEB", "group": "cosmos-2251-debris", "lat": 30.977333299308086, "lon": -46.660634657455674, "alt_km": 659.1617575069886, "timestamp": "2025-12-14T09:36:23.431913+00:00", "meta": {"OBJECT_NAME": "COSMOS 2251 DEB", "OBJECT_ID": "1993-036LQ", "EPOCH": "2025-12-13T07:14:25.569312", "MEAN_MOTION": 14.65179384, "ECCENTRICITY": 0.00477811, "INCLINATION": 74.0115, "RA_OF_ASC_NODE": 305.5441, "ARG_OF_PERICENTER": 98.1901, "MEAN_ANOMALY": 262.4691, "EPHEMERIS_TYPE": 0, "CLASSIFICATION_TYPE": "U", "NORAD_CAT_ID": 34270, "ELEMENT_SET_NO": 999, "REV_AT_EPOCH": 89104, "BSTAR": 0.0013361778, "MEAN_MOTION_DOT": 7.287e-05, "MEAN_MOTION_DDOT": 0}, "tle": {"line1": "1 34270U 93036LQ  25347.30168483  .00007287  00000+0  13362-2 0  9991", "line2": "2 34270  74.0115 305.5441 0047781  98.1901 262.4691 14.65179384891043"}}, "geometry": {"type": "Point", "coordinates": [-46.660634657455674, 30.977333299308086]}}, {"type": "Feature", "properties": {"norad_id": 34271, "name": "COSMOS 2251 DEB", "group": "cosmos-2251-debris", "lat": 11.963434496218847, "lon": -160.41734218445816, "alt_km": 666.5850593699461, "timestamp": "2025-12-14T09:36:23.431923+00:00", "meta": {"OBJECT_NAME": "COSMOS 2251 DEB", "OBJECT_ID": "1993-036LR", "EPOCH": "2025-12-13T15:51:07.109280", "MEAN_MOTION": 14.70791471, "ECCENTRICITY": 0.00188607, "INCLINATION": 74.0203, "RA_OF_ASC_NODE": 197.5385, "ARG_OF_PERICENTER": 251.5488, "MEAN_ANOMALY": 165.4485, "EPHEMERIS_TYPE": 0, "CLASSIFICATION_TYPE": "U", "NORAD_CAT_ID": 34271, "ELEMENT_SET_NO": 999, "REV_AT_EPOCH": 88248, "BSTAR": 0.0022192586, "MEAN_MOTION_DOT": 0.00013585, "MEAN_MOTION_DDOT": 0}, "tle": {"line1": "1 34271U 93036LR  25347.66049895  .00013585  00000+0  22193-2 0  9996", "line2": "2 34271  74.0203 197.5385 0018860 251.5488 165.4485 14.70791471882483"}}, "geometry": {"type": "Point", "coordinates": [-160.41734218445816, 11.963434496218847]}}, {"type": "Feature", "properties": {"norad_id": 34273, "name": "COSMOS 2251 DEB", "group": "cosmos-2251-debris", "lat": -24.031833169193792, "lon": 76.91959459800484, "alt_km": 700.0026686422016, "timestamp": "2025-12-14T09:36:23.431933+00:00", "meta": {"OBJECT_NAME": "COSMOS 2251 DEB", "OBJECT_ID": "1993-036LT", "EPOCH": "2025-12-13T09:23:02.508000", "MEAN_MOTION": 14.6124097, "ECCENTRICITY": 0.00140544, "INCLINATION": 74.0358, "RA_OF_ASC_NODE": 86.1818, "ARG_OF_PERICENTER": 212.0456, "MEAN_ANOMALY": 215.7941, "EPHEMERIS_TYPE": 0, "CLASSIFICATION_TYPE": "U", "NORAD_CAT_ID": 34273, "ELEMENT_SET_NO": 999, "REV_AT_EPOCH": 88631, "BSTAR": 0.0016632159, "MEAN_MOTION_DOT": 8.193e-05, "MEAN_MOTION_DDOT": 0}, "tle": {"line1": "1 34273U 93036LT  25347.39100125  .00008193  00000+0  16632-2 0  9992", "line2": "2 34273  74.0358  86.1818 0014054 212.0456 215.7941 14.61240970886313"}}, "geometry": {"type": "Point", "coordinates": [76.91959459800484, -24.031833169193792]}}, {"type": "Feature", "properties": {"norad_id": 34274, "name": "COSMOS 2251 DEB", "group": "cosmos-2251-debris", "lat": 70.18791783677538, "lon": 118.14132816248677, "alt_km": 681.848088417134, "timestamp": "2025-12-14T09:36:23.431943+00:00", "meta": {"OBJECT_NAME": "COSMOS 2251 DEB", "OBJECT_ID": "1993-036LU", "EPOCH": "2025-12-13T15:46:47.555040", "MEAN_MOTION": 14.64802755, "ECCENTRICITY": 0.00219806, "INCLINATION": 74.0043, "RA_OF_ASC_NODE": 66.799, "ARG_OF_PERICENTER": 216.7961, "MEAN_ANOMALY": 266.2892, "EPHEMERIS_TYPE": 0, "CLASSIFICATION_TYPE": "U", "NORAD_CAT_ID": 34274, "ELEMENT_SET_NO": 999, "REV_AT_EPOCH": 88689, "BSTAR": 0.0013681727, "MEAN_MOTION_DOT": 7.302e-05, "MEAN_MOTION_DDOT": 0}, "tle": {"line1": "1 34274U 93036LU  25347.65749485  .00007302  00000+0  13682-2 0  9993", "line2": "2 34274  74.0043  66.7990 0021980 216.7961 266.2892 14.64802755886895"}}, "geometry": {"type": "Point", "coordinates": [118.14132816248677, 70.18791783677538]}}, {"type": "Feature", "properties": {"norad_id": 34276, "name": "COSMOS 2251 DEB", "group": "cosmos-2251-debris", "lat": -27.825510095575495, "lon": 73.46702252889574, "alt_km": 710.9267605596415, "timestamp": "2025-12-14T09:36:23.431953+00:00", "meta": {"OBJECT_NAME": "COSMOS 2251 DEB", "OBJECT_ID": "1993-036LW", "EPOCH": "2025-12-13T07:38:48.009408", "MEAN_MOTION": 14.57238396, "ECCENTRICITY": 0.00225552, "INCLINATION": 74.0234, "RA_OF_ASC_NODE": 84.2199, "ARG_OF_PERICENTER": 230.9194, "MEAN_ANOMALY": 187.7345, "EPHEMERIS_TYPE": 0, "CLASSIFICATION_TYPE": "U", "NORAD_CAT_ID": 34276, "ELEMENT_SET_NO": 999, "REV_AT_EPOCH": 88601, "BSTAR": 0.0013110127, "MEAN_MOTION_DOT": 5.921e-05, "MEAN_MOTION_DDOT": 0}, "tle": {"line1": "1 34276U 93036LW  25347.31861122  .00005921  00000+0  13110-2 0  9992", "line2": "2 34276  74.0234  84.2199 0022555 230.9194 187.7345 14.57238396886010"}}, "geometry": {"type": "Point", "coordinates": [73.46702252889574, -27.825510095575495]}}, {"type": "Feature", "properties": {"norad_id": 34297, "name": "COSMOS 2251 DEB", "group": "cosmos-2251-debris", "lat": -38.02024225107336, "lon": 114.10547198550232, "alt_km": 783.5819743704915, "timestamp": "2025-12-14T09:36:23.431963+00:00", "meta": {"OBJECT_NAME": "COSMOS 2251 DEB", "OBJECT_ID": "1993-036MT", "EPOCH": "2025-12-13T06:35:52.744128", "MEAN_MOTION": 14.36630342, "ECCENTRICITY": 0.00173099, "INCLINATION": 74.0487, "RA_OF_ASC_NODE": 283.2494, "ARG_OF_PERICENTER": 351.7122, "MEAN_ANOMALY": 170.337, "EPHEMERIS_TYPE": 0, "CLASSIFICATION_TYPE": "U", "NORAD_CAT_ID": 34297, "ELEMENT_SET_NO": 999, "REV_AT_EPOCH": 88072, "BSTAR": 0.00023942854, "MEAN_MOTION_DOT": 6.79e-06, "MEAN_MOTION_DDOT": 0}, "tle": {"line1": "1 34297U 93036MT  25347.27491602  .00000679  00000+0  23943-3 0  9993", "line2": "2 34297  74.0487 283.2494 0017309 351.7122 170.3370 14.36630342880728"}}, "geometry": {"type": "Point", "coordinates": [114.10547198550232, -38.02024225107336]}}, {"type": "Feature", "properties": {"norad_id": 34299, "name": "COSMOS 2251 DEB", "group": "cosmos-2251-debris", "lat": -37.19736513034645, "lon": 163.34338955808758, "alt_km": 355.56241519471405, "timestamp": "2025-12-14T09:36:23.431973+00:00", "meta": {"OBJECT_NAME": "COSMOS 2251 DEB", "OBJECT_ID": "1993-036MV", "EPOCH": "2025-12-13T09:49:46.237152", "MEAN_MOTION": 15.74841995, "ECCENTRICITY": 0.00182656, "INCLINATION": 73.9755, "RA_OF_ASC_NODE": 333.0102, "ARG_OF_PERICENTER": 60.5117, "MEAN_ANOMALY": 299.7927, "EPHEMERIS_TYPE": 0, "CLASSIFICATION_TYPE": "U", "NORAD_CAT_ID": 34299, "ELEMENT_SET_NO": 999, "REV_AT_EPOCH": 89021, "BSTAR": 0.007873165, "MEAN_MOTION_DOT": 0.01306346, "MEAN_MOTION_DDOT": 0}, "tle": {"line1": "1 34299U 93036MV  25347.40956293  .01306346  00000+0  78732-2 0  9998", "line2": "2 34299  73.9755 333.0102 0018265  60.5117 299.7927 15.74841995890217"}}, "geometry": {"type": "Point", "coordinates": [163.34338955808758, -37.19736513034645]}}, {"type": "Feature", "properties": {"norad_id": 34301, "name": "COSMOS 2251 DEB", "group": "cosmos-2251-debris", "lat": 73.82465970432625, "lon": -98.02814786056005, "alt_km": 612.4565250848564, "timestamp": "2025-12-14T09:36:23.431983+00:00", "meta": {"OBJECT_NAME": "COSMOS 2251 DEB", "OBJECT_ID": "1993-036MX", "EPOCH": "2025-12-13T14:03:13.719744", "MEAN_MOTION": 14.84609778, "ECCENTRICITY": 0.00112415, "INCLINATION": 74.0061, "RA_OF_ASC_NODE": 165.0237, "ARG_OF_PERICENTER": 225.7161, "MEAN_ANOMALY": 194.2936, "EPHEMERIS_TYPE": 0, "CLASSIFICATION_TYPE": "U", "NORAD_CAT_ID": 34301, "ELEMENT_SET_NO": 999, "REV_AT_EPOCH": 88413, "BSTAR": 0.0033761079, "MEAN_MOTION_DOT": 0.00028648, "MEAN_MOTION_DDOT": 0}, "tle": {"line1": "1 34301U 93036MX  25347.58557546  .00028648  00000+0  33761-2 0  9997", "line2": "2 34301  74.0061 165.0237 0011241 225.7161 194.2936 14.84609778884130"}}, "geometry": {"type": "Point", "coordinates": [-98.02814786056005, 73.82465970432625]}}, {"type": "Feature", "properties": {"norad_id": 34302, "name": "COSMOS 2251 DEB", "group": "cosmos-2251-debris", "lat": -74.16824454694053, "lon": 30.4896167794156, "alt_km": 743.8072922002193, "timestamp": "2025-12-14T09:36:23.431994+00:00", "meta": {"OBJECT_NAME": "COSMOS 2251 DEB", "OBJECT_ID": "1993-036MY", "EPOCH": "2025-12-13T12:54:48.801312", "MEAN_MOTION": 14.39335648, "ECCENTRICITY": 0.00788096, "INCLINATION": 74.178, "RA_OF_ASC_NODE": 122.1194, "ARG_OF_PERICENTER": 337.1429, "MEAN_ANOMALY": 147.8595, "EPHEMERIS_TYPE": 0, "CLASSIFICATION_TYPE": "U", "NORAD_CAT_ID": 34302, "ELEMENT_SET_NO": 999, "REV_AT_EPOCH": 87732, "BSTAR": 0.00085243138, "MEAN_MOTION_DOT": 2.722e-05, "MEAN_MOTION_DDOT": 0}, "tle": {"line1": "1 34302U 93036MY  25347.53806483  .00002722  00000+0  85243-3 0  9998", "line2": "2 34302  74.1780 122.1194 0078809 337.1429 147.8595 14.39335648877324"}}, "geometry": {"type": "Point", "coordinates": [30.4896167794156, -74.16824454694053]}}]}